IRIDIUM 119             
1 42959U 17061E   24116.18438169  .00000145  00000+0  44549-4 0  9997
2 42959  86.4003 352.4758 0002354  85.5088 274.6376 14.34219695342585
IRIDIUM 107             
1 42960U 17061F   24115.71503211  .00000419  00000+0  14248-3 0  9994
2 42960  86.4006 352.6882 0002304  77.5837 282.5616 14.34216588342525
IRIDIUM 132             
1 42961U 17061G   24116.20973753  .00000759  00000+0  26381-3 0  9990
2 42961  86.4006 352.4661 0002304  81.4693 278.6764 14.34209491342595
IRIDIUM 136             
1 42962U 17061H   24115.61354969  .00000440  00000+0  15004-3 0  9994
2 42962  86.4003 352.7186 0002454  86.4815 273.6661 14.34218816342520
IRIDIUM 139             
1 42963U 17061J   24115.68966032  .00000419  00000+0  14270-3 0  9992
2 42963  86.4006 352.7362 0002203  79.8144 280.3301 14.34215026342541
IRIDIUM 125             
1 42964U 17061K   24116.16535647  .00000163  00000+0  51250-4 0  9997
2 42964  86.4005 352.5841 0002513  83.2750 276.8732 14.34217541342628
IRIDIUM 135             
1 43070U 17083A   24115.58133400  .00000338  00000+0  11360-3 0  9997
2 43070  86.3913 289.4927 0001729  94.2927 265.8467 14.34223386331831
IRIDIUM 138             
1 43071U 17083B   24115.88577871  .00000806  00000+0  28056-3 0  9995
2 43071  86.3902 289.0886 0002295  84.1145 276.0312 14.34219528331868
